ONEWEB-0555             
1 56057U 23043M   25201.55652179 -.00000030  00000+0 -11158-3 0  9998
2 56057  87.9055 294.8711 0001513 109.1954 250.9340 13.16594127115324
ONEWEB-0557             
1 56058U 23043N   25201.49476898  .00000144  00000+0  34426-3 0  9991
2 56058  87.9053 294.9049 0002169 136.3263 223.8040 13.16594079115312
ONEWEB-0558             
1 56059U 23043P   25201.74099316 -.00000031  00000+0 -10562-3 0  9998
2 56059  87.9276 310.1071 0002210  88.8833 271.2554 13.21824299115365
ONEWEB-0559             
1 56060U 23043Q   25201.57856620 -.00000004  00000+0 -40664-4 0  9997
2 56060  87.9277 310.1313 0002359  97.3677 262.7725 13.21826573115353
ONEWEB-0566             
1 56061U 23043R   25201.57226048  .00000030  00000+0  41031-4 0  9999
2 56061  87.9275 310.1312 0002267  95.1889 264.9503 13.21826180114429
ONEWEB-0568             
1 56062U 23043S   25201.51218500 -.00000909  00000+0 -24112-2 0  9994
2 56062  87.9060 294.8741 0001676 102.4633 257.6685 13.16599372115333
ONEWEB-0574             
1 56063U 23043T   25201.33886303 -.00000027  00000+0 -95675-4 0  9992
2 56063  87.9275 310.1658 0002026 106.6349 253.5007 13.21825894114431
ONEWEB-0575             
1 56064U 23043U   25201.73385859  .00000012  00000+0 -12875-5 0  9992
2 56064  87.9058 294.8387 0001948 113.6793 246.4543 13.16595172116267
ONEWEB-0576             
1 56065U 23043V   25201.48685307  .00000002  00000+0 -27115-4 0  9997
2 56065  87.9056 294.8784 0001818 103.8249 256.3084 13.16594795115315
ONEWEB-0577             
1 56066U 23043W   25201.49319496  .00000137  00000+0  32531-3 0  9997
2 56066  87.9066 294.8771 0002072 119.7854 240.3483 13.16594547115348
ONEWEB-0578             
1 56067U 23043X   25201.55332703  .00000110  00000+0  23413-3 0  9991
2 56067  87.9272 310.1336 0001881 101.6658 258.4688 13.21827568114429
ONEWEB-0579             
1 56068U 23043Y   25201.54387220  .00000110  00000+0  23481-3 0  9990
2 56068  87.9274 310.1211 0002266  99.2020 260.9370 13.21825482114437
ONEWEB-0581             
1 56069U 23043Z   25201.49953415  .00000076  00000+0  16507-3 0  9992
2 56069  87.9053 294.9035 0002266 111.2712 248.8661 13.16594979115313
ONEWEB-0609             
1 56070U 23043AA  25201.87804397  .00000025  00000+0  33541-4 0  9992
2 56070  87.9082 325.2793 0001911  96.1858 263.9490 13.15548634113787
ONEWEB-0613             
1 56071U 23043AB  25201.64511902  .00000127  00000+0  30200-3 0  9996
2 56071  87.9087 325.3377 0002176  98.1639 261.9738 13.15548702112840
ONEWEB-0630             
1 56072U 23043AC  25201.64035424  .00000156  00000+0  38032-3 0  9990
2 56072  87.9082 325.3151 0002219  94.5346 265.6038 13.15549218112835
ONEWEB-0632             
1 56073U 23043AD  25201.86377346  .00000189  00000+0  46707-3 0  9991
2 56073  87.9081 325.2906 0002007 104.4174 255.7179 13.15549532113776
ONEWEB-0633             
1 56074U 23043AE  25201.85742062 -.00000220  00000+0 -61925-3 0  9999
2 56074  87.9073 325.2583 0002149  89.1193 271.0183 13.15547861113753
ONEWEB-0634             
1 56075U 23043AF  25201.84317518 -.00000071  00000+0 -22166-3 0  9991
2 56075  87.9081 325.2985 0001717  90.2875 269.8452 13.15548687113749
ONEWEB-0635             
1 56076U 23043AG  25201.61024077 -.00000273  00000+0 -75797-3 0  9994
2 56076  87.9052 325.3213 0002064 107.6031 252.5325 13.15548687112833
ONEWEB-0636             
1 56077U 23043AH  25201.83049593 -.00000128  00000+0 -37458-3 0  9990
2 56077  87.9064 325.2897 0002008 106.0481 254.0870 13.15549346113751
ONEWEB-0637             
1 56078U 23043AJ  25201.59598794 -.00000057  00000+0 -18640-3 0  9999
2 56078  87.9081 325.3459 0001673 108.0377 252.0936 13.15547374112837
ONEWEB-0647             
1 56079U 23043AK  25201.59124014 -.00000021  00000+0 -90044-4 0  9990
2 56079  87.9080 325.3558 0002126 101.4247 258.7122 13.15549668112821
ONEWEB-0651             
1 56080U 23043AL  25201.58648624  .00000077  00000+0  16993-3 0  9998
2 56080  87.9086 325.3458 0001899 108.5518 251.5819 13.15549155112828
ONEWEB-0718             
1 56081U 23043AM  25201.88596071 -.00000072  00000+0 -22600-3 0  9999
2 56081  87.9086 325.2695 0001592  87.5933 272.5379 13.15548887113789
ONEWEB-0561             
1 56710U 23068A   25201.83754673 -.00001025  00000+0 -25528-2 0  9994
2 56710  87.9275 340.4684 0002290 100.7290 259.4101 13.20773497106462
ONEWEB-0668             
1 56711U 23068B   25201.50189454  .00000068  00000+0  14385-3 0  9992
2 56711  87.9068 294.8680 0001475  93.1460 266.9840 13.16595945108133
ONEWEB-0676             
1 56712U 23068C   25201.55811527  .00000055  00000+0  11082-3 0  9998
2 56712  87.9056 294.8809 0002341 109.8138 250.3245 13.16595390108763
ONEWEB-0677             
1 56713U 23068D   25201.44774847 -.00000010  00000+0 -55417-4 0  9994
2 56713  87.9272 340.5229 0001804 106.9826 253.1505 13.20770507106010
ONEWEB-0678             
1 56714U 23068E   25201.85427302  .00000027  00000+0  38906-4 0  9991
2 56714  87.9081 325.2468 0002212  96.5691 263.5691 13.15549289106423
ONEWEB-0679             
1 56715U 23068F   25201.52723298  .00000023  00000+0  27177-4 0  9993
2 56715  87.9053 294.8793 0001682 112.9638 247.1671 13.16595297108080
ONEWEB-0680             
1 56716U 23068G   25201.54701630  .00000090  00000+0  18662-3 0  9994
2 56716  87.9265 310.1235 0001336  98.0126 262.1160 13.21825617107987
ONEWEB-0681             
1 56717U 23068H   25201.85442481 -.00000011  00000+0 -56737-4 0  9996
2 56717  87.9272 310.0890 0002348 124.6223 235.5133 13.22339054108015
ONEWEB-0682             
1 56718U 23068J   25201.57617125  .00000141  00000+0  33932-3 0  9998
2 56718  87.9070 325.3316 0001394 101.7560 258.3727 13.15547534106559
ONEWEB-0683             
1 56719U 23068K   25201.59756952 -.00000051  00000+0 -17057-3 0  9995
2 56719  87.9083 325.2986 0001617  98.1359 261.9955 13.15549913105824
ONEWEB-0684             
1 56720U 23068L   25201.60549413 -.00000102  00000+0 -30418-3 0  9994
2 56720  87.9053 325.3072 0003039  77.7745 282.3725 13.15549463105655
ONEWEB-0686             
1 56721U 23068M   25201.51694353  .00000004  00000+0 -24140-4 0  9995
2 56721  87.9047 294.9150 0001844  91.9308 268.2034 13.16595797108079
ONEWEB-0694             
1 56722U 23068N   25201.55968345  .00000056  00000+0  11220-3 0  9995
2 56722  87.9063 294.8277 0001584 100.4901 259.6408 13.16595579108834
ONEWEB-0696             
1 56723U 23068P   25201.86694274  .00000099  00000+0  22875-3 0  9992
2 56723  87.9081 325.2978 0002232  97.2864 262.8520 13.15548996106507
ONEWEB-0703             
1 56724U 23068Q   25201.57221518  .00000194  00000+0  48231-3 0  9998
2 56724  87.9066 325.3482 0003036 105.1413 255.0053 13.15547849106358
ONEWEB-0721             
1 56725U 23068R   25201.44661311  .00000038  00000+0  56552-4 0  9997
2 56725  86.6814 191.2369 0002001  86.8402 273.2960 13.22440668114092
ONEWEB-0015             
1 61594U 24188A   25201.41849211 -.00000317  00000+0 -93085-3 0  9998
2 61594  87.8844  87.2271 0001482  98.4974 261.6322 13.11418279 40978
ONEWEB-0687             
1 61595U 24188B   25201.16196741  .00000041  00000+0  72944-4 0  9998
2 61595  87.9048  72.0054 0001146  79.4735 280.6525 13.17651086 42179
ONEWEB-0688             
1 61596U 24188C   25201.72239657 -.00033244  00000+0 -86280-1 0  9993
2 61596  87.9010  71.8926 0001037  69.0691 291.0551 13.17403027 40318
ONEWEB-0689             
1 61597U 24188D   25201.37612072  .00000316  00000+0  85492-3 0  9999
2 61597  87.8784  87.2120 0001521  70.0134 290.1158 13.11414693 40964
ONEWEB-0690             
1 61598U 24188E   25201.38629455 -.00000074  00000+0 -24345-3 0  9997
2 61598  87.8832  87.1672 0002529  84.7220 275.4196 13.11415987 41143
ONEWEB-0691             
1 61599U 24188F   25201.61010270  .00000165  00000+0  43035-3 0  9999
2 61599  87.8738  87.1232 0001634  91.0207 269.1109 13.11415042 41026
ONEWEB-0692             
1 61600U 24188G   25201.63044208 -.00000499  00000+0 -14447-2 0  9998
2 61600  87.8818  87.1925 0002146  52.6631 307.4692 13.11415801 39236
ONEWEB-0693             
1 61601U 24188H   25201.58213551  .00000013  00000+0  28840-6 0  9998
2 61601  87.9047  71.9392 0002597  94.9680 265.1748 13.17671904 42212
ONEWEB-0695             
1 61602U 24188J   25201.37781755  .00000243  00000+0  64955-3 0  9991
2 61602  87.8817  87.2285 0001574  61.7557 298.3729 13.11416156 40975
ONEWEB-0697             
1 61603U 24188K   25201.41001492 -.00000533  00000+0 -15409-2 0  9993
2 61603  87.8811  87.2172 0002199  55.8325 304.3011 13.11417278 40963
ONEWEB-0698             
1 61604U 24188L   25201.38798735 -.00000076  00000+0 -24965-3 0  9993
2 61604  87.8810  87.2337 0002798  66.6584 293.4838 13.11414569 40985
ONEWEB-0699             
1 61605U 24188M   25201.67125808 -.00000568  00000+0 -16647-2 0  9994
2 61605  87.8810 102.3724 0002206  62.2626 297.8724 13.10372408 38026
ONEWEB-0700             
1 61606U 24188N   25201.44382649 -.00000607  00000+0 -17765-2 0  9994
2 61606  87.8772 102.3198 0001661  54.1692 305.9589 13.10372703 39856
ONEWEB-0701             
1 61607U 24188P   25201.46043660 -.00000245  00000+0 -73763-3 0  9993
2 61607  87.8818 102.4221 0002334  55.8751 304.2598 13.10376184 39868
ONEWEB-0702             
1 61608U 24188Q   25201.43377399  .00000467  00000+0  12826-2 0  9996
2 61608  87.8749  87.1866 0001982  49.8357 310.2944 13.11416686 41003
ONEWEB-0704             
1 61609U 24188R   25201.44881065 -.00000616  00000+0 -18022-2 0  9990
2 61609  87.8841 102.3622 0002010  46.4136 313.7158 13.10373512 39841
ONEWEB-0705             
1 61610U 24188S   25201.45378438 -.00000342  00000+0 -10154-2 0  9992
2 61610  87.8809 102.4070 0000931  39.5744 320.5451 13.10376465 32017
ONEWEB-0706             
1 61611U 24188T   25201.43875131 -.00000553  00000+0 -16251-2 0  9991
2 61611  87.8815 102.4362 0001688  64.2504 295.8797 13.10217583 39938
